[
    {
        "CCSDS_OMM_VERS": "3.0",
        "COMMENT": "GENERATED VIA SPACE-TRACK.ORG API",
        "CREATION_DATE": "2025-07-31T18:11:57",
        "ORIGINATOR": "18 SPCS",
        "OBJECT_NAME": "STARLINK-34544",
        "OBJECT_ID": "2025-152Z",
        "CENTER_NAME": "EARTH",
        "REF_FRAME": "TEME",
        "TIME_SYSTEM": "UTC",
        "MEAN_ELEMENT_THEORY": "SGP4",
        "EPOCH": "2025-07-31T14:00:01.999872",
        "MEAN_MOTION": "15.78114427",
        "ECCENTRICITY": "0.00014900",
        "INCLINATION": "97.5953",
        "RA_OF_ASC_NODE": "65.0034",
        "ARG_OF_PERICENTER": "66.2259",
        "MEAN_ANOMALY": "285.7255",
        "EPHEMERIS_TYPE": "0",
        "CLASSIFICATION_TYPE": "U",
        "NORAD_CAT_ID": "64865",
        "ELEMENT_SET_NO": "999",
        "REV_AT_EPOCH": "244",
        "BSTAR": "-0.00410030000000",
        "MEAN_MOTION_DOT": "-0.00645998",
        "MEAN_MOTION_DDOT": "0.0000000000000",
        "SEMIMAJOR_AXIS": "6713.920",
        "PERIOD": "91.248",
        "APOAPSIS": "336.786",
        "PERIAPSIS": "334.785",
        "OBJECT_TYPE": "PAYLOAD",
        "RCS_SIZE": "LARGE",
        "COUNTRY_CODE": "US",
        "LAUNCH_DATE": "2025-07-19",
        "SITE": "AFWTR",
        "DECAY_DATE": null,
        "FILE": "4801664",
        "GP_ID": "293978418",
        "TLE_LINE0": "0 STARLINK-34544",
        "TLE_LINE1": "1 64865U 25152Z   25212.58335648 -.00645998  00000-0 -41003-2 0  9991",
        "TLE_LINE2": "2 64865  97.5953  65.0034 0001490  66.2259 285.7255 15.78114427  2445"
    }
]